{
  "type": "FeatureCollection",
  "features": [
    {
      "type": "Feature",
      "properties": {
        "norad_id": 2807,
        "name": "OPS 7218 (TRANSIT 16)",
        "group": "nnss",
        "lat": -41.223649170263435,
        "lon": -6.621367054967678,
        "alt_km": 1086.0687152272603,
        "timestamp": "2025-12-23T07:45:09.672913+00:00",
        "meta_object_name": "OPS 7218 (TRANSIT 16)",
        "meta_object_id": "1967-048A",
        "meta_epoch": "2025-12-22T11:11:04.665408",
        "meta_mean_motion": 13.50724324,
        "meta_eccentricity": 0.00221616,
        "meta_inclination": 89.6731,
        "meta_ra_of_asc_node": 353.6935,
        "meta_arg_of_pericenter": 88.1678,
        "meta_mean_anomaly": 26.1167,
        "meta_ephemeris_type": 0,
        "meta_classification_type": "U",
        "meta_norad_cat_id": 2807,
        "meta_element_set_no": 999,
        "meta_rev_at_epoch": 88407,
        "meta_bstar": 0.00015711372,
        "meta_mean_motion_dot": 1.12e-06,
        "meta_mean_motion_ddot": 0,
        "tle_line1": "1 02807U 67048A   25356.46602622  .00000112  00000+0  15711-3 0  9992",
        "tle_line2": "2 02807  89.6731 353.6935 0022161  88.1678  26.1167 13.50724324884078"
      },
      "geometry": {
        "type": "Point",
        "coordinates": [
          -6.621367054967678,
          -41.223649170263435
        ]
      }
    },
    {
      "type": "Feature",
      "properties": {
        "norad_id": 2965,
        "name": "OPS 4947 (TRANSIT 17)",
        "group": "nnss",
        "lat": 52.94541825252348,
        "lon": -157.3675445418452,
        "alt_km": 1046.137344471178,
        "timestamp": "2025-12-23T07:45:09.672935+00:00",
        "meta_object_name": "OPS 4947 (TRANSIT 17)",
        "meta_object_id": "1967-092A",
        "meta_epoch": "2025-12-22T15:44:48.349824",
        "meta_mean_motion": 13.53456108,
        "meta_eccentricity": 0.00469124,
        "meta_inclination": 89.2487,
        "meta_ra_of_asc_node": 23.679,
        "meta_arg_of_pericenter": 205.0225,
        "meta_mean_anomaly": 274.9233,
        "meta_ephemeris_type": 0,
        "meta_classification_type": "U",
        "meta_norad_cat_id": 2965,
        "meta_element_set_no": 999,
        "meta_rev_at_epoch": 87231,
        "meta_bstar": 0.00018492405,
        "meta_mean_motion_dot": 1.36e-06,
        "meta_mean_motion_ddot": 0,
        "tle_line1": "1 02965U 67092A   25356.65611516  .00000136  00000+0  18492-3 0  9994",
        "tle_line2": "2 02965  89.2487  23.6790 0046912 205.0225 274.9233 13.53456108872314"
      },
      "geometry": {
        "type": "Point",
        "coordinates": [
          -157.3675445418452,
          52.94541825252348
        ]
      }
    },
    {
      "type": "Feature",
      "properties": {
        "norad_id": 3133,
        "name": "OPS 7034 (TRANSIT 18)",
        "group": "nnss",
        "lat": -25.727752020763518,
        "lon": 93.65526248824344,
        "alt_km": 1049.9748450781526,
        "timestamp": "2025-12-23T07:45:09.672948+00:00",
        "meta_object_name": "OPS 7034 (TRANSIT 18)",
        "meta_object_id": "1968-012A",
        "meta_epoch": "2025-12-22T20:25:10.580160",
        "meta_mean_motion": 13.51567989,
        "meta_eccentricity": 0.00748024,
        "meta_inclination": 90.0284,
        "meta_ra_of_asc_node": 273.6676,
        "meta_arg_of_pericenter": 140.0465,
        "meta_mean_anomaly": 288.5401,
        "meta_ephemeris_type": 0,
        "meta_classification_type": "U",
        "meta_norad_cat_id": 3133,
        "meta_element_set_no": 999,
        "meta_rev_at_epoch": 57055,
        "meta_bstar": 0.00019731001,
        "meta_mean_motion_dot": 1.41e-06,
        "meta_mean_motion_ddot": 0,
        "tle_line1": "1 03133U 68012A   25356.85081690  .00000141  00000+0  19731-3 0  9994",
        "tle_line2": "2 03133  90.0284 273.6676 0074802 140.0465 288.5401 13.51567989570557"
      },
      "geometry": {
        "type": "Point",
        "coordinates": [
          93.65526248824344,
          -25.727752020763518
        ]
      }
    },
    {
      "type": "Feature",
      "properties": {
        "norad_id": 4507,
        "name": "NNSS 19 (TRANSIT 19)",
        "group": "nnss",
        "lat": 15.084868146460275,
        "lon": 54.5423151142104,
        "alt_km": 1082.91704753678,
        "timestamp": "2025-12-23T07:45:09.672960+00:00",
        "meta_object_name": "NNSS 19 (TRANSIT 19)",
        "meta_object_id": "1970-067A",
        "meta_epoch": "2025-12-22T09:35:43.059552",
        "meta_mean_motion": 13.5131705,
        "meta_eccentricity": 0.01702199,
        "meta_inclination": 90.005,
        "meta_ra_of_asc_node": 234.5405,
        "meta_arg_of_pericenter": 265.1051,
        "meta_mean_anomaly": 93.0648,
        "meta_ephemeris_type": 0,
        "meta_classification_type": "U",
        "meta_norad_cat_id": 4507,
        "meta_element_set_no": 999,
        "meta_rev_at_epoch": 72352,
        "meta_bstar": 0.00016490371,
        "meta_mean_motion_dot": 1.25e-06,
        "meta_mean_motion_ddot": 0,
        "tle_line1": "1 04507U 70067A   25356.39980393  .00000125  00000+0  16490-3 0  9991",
        "tle_line2": "2 04507  90.0050 234.5405 0170219 265.1051  93.0648 13.51317050723520"
      },
      "geometry": {
        "type": "Point",
        "coordinates": [
          54.5423151142104,
          15.084868146460275
        ]
      }
    },
    {
      "type": "Feature",
      "properties": {
        "norad_id": 6909,
        "name": "NNSS 20 (TRANSIT 20)",
        "group": "nnss",
        "lat": -76.60418768807425,
        "lon": -105.7086113471626,
        "alt_km": 1064.205241677032,
        "timestamp": "2025-12-23T07:45:09.672971+00:00",
        "meta_object_name": "NNSS 20 (TRANSIT 20)",
        "meta_object_id": "1973-081A",
        "meta_epoch": "2025-12-22T02:21:26.013600",
        "meta_mean_motion": 13.71439096,
        "meta_eccentricity": 0.0156327,
        "meta_inclination": 89.8562,
        "meta_ra_of_asc_node": 254.914,
        "meta_arg_of_pericenter": 50.5929,
        "meta_mean_anomaly": 310.8956,
        "meta_ephemeris_type": 0,
        "meta_classification_type": "U",
        "meta_norad_cat_id": 6909,
        "meta_element_set_no": 999,
        "meta_rev_at_epoch": 80489,
        "meta_bstar": 0.00027894557,
        "meta_mean_motion_dot": 2.85e-06,
        "meta_mean_motion_ddot": 0,
        "tle_line1": "1 06909U 73081A   25356.09821775  .00000285  00000+0  27895-3 0  9991",
        "tle_line2": "2 06909  89.8562 254.9140 0156327  50.5929 310.8956 13.71439096804897"
      },
      "geometry": {
        "type": "Point",
        "coordinates": [
          -105.7086113471626,
          -76.60418768807425
        ]
      }
    },
    {
      "type": "Feature",
      "properties": {
        "norad_id": 10457,
        "name": "TRANSAT",
        "group": "nnss",
        "lat": 81.1949657545836,
        "lon": 80.49859647536435,
        "alt_km": 1064.7266617799587,
        "timestamp": "2025-12-23T07:45:09.672981+00:00",
        "meta_object_name": "TRANSAT",
        "meta_object_id": "1977-106A",
        "meta_epoch": "2025-12-22T17:40:54.619392",
        "meta_mean_motion": 13.48945062,
        "meta_eccentricity": 0.00263251,
        "meta_inclination": 89.6477,
        "meta_ra_of_asc_node": 78.243,
        "meta_arg_of_pericenter": 161.017,
        "meta_mean_anomaly": 315.0669,
        "meta_ephemeris_type": 0,
        "meta_classification_type": "U",
        "meta_norad_cat_id": 10457,
        "meta_element_set_no": 999,
        "meta_rev_at_epoch": 36878,
        "meta_bstar": 0.00013351896,
        "meta_mean_motion_dot": 9.4e-07,
        "meta_mean_motion_ddot": 0,
        "tle_line1": "1 10457U 77106A   25356.73674328  .00000094  00000+0  13352-3 0  9998",
        "tle_line2": "2 10457  89.6477  78.2430 0026325 161.0170 315.0669 13.48945062368782"
      },
      "geometry": {
        "type": "Point",
        "coordinates": [
          80.49859647536435,
          81.1949657545836
        ]
      }
    },
    {
      "type": "Feature",
      "properties": {
        "norad_id": 12458,
        "name": "NOVA 1",
        "group": "nnss",
        "lat": 86.55024649385456,
        "lon": 93.68287879770673,
        "alt_km": 1152.9616582517374,
        "timestamp": "2025-12-23T07:45:09.672992+00:00",
        "meta_object_name": "NOVA 1",
        "meta_object_id": "1981-044A",
        "meta_epoch": "2025-12-22T13:13:40.325952",
        "meta_mean_motion": 13.2327954,
        "meta_eccentricity": 0.00158143,
        "meta_inclination": 89.8526,
        "meta_ra_of_asc_node": 91.2465,
        "meta_arg_of_pericenter": 79.8958,
        "meta_mean_anomaly": 291.7383,
        "meta_ephemeris_type": 0,
        "meta_classification_type": "U",
        "meta_norad_cat_id": 12458,
        "meta_element_set_no": 999,
        "meta_rev_at_epoch": 15316,
        "meta_bstar": 0.0001659475,
        "meta_mean_motion_dot": 7.9e-07,
        "meta_mean_motion_ddot": 0,
        "tle_line1": "1 12458U 81044A   25356.55116118  .00000079  00000+0  16595-3 0  9990",
        "tle_line2": "2 12458  89.8526  91.2465 0015814  79.8958 291.7383 13.23279540153167"
      },
      "geometry": {
        "type": "Point",
        "coordinates": [
          93.68287879770673,
          86.55024649385456
        ]
      }
    }
  ]
}